OBJECT_NAME,OBJECT_ID,EPOCH,MEAN_MOTION,ECCENTRICITY,INCLINATION,RA_OF_ASC_NODE,ARG_OF_PERICENTER,MEAN_ANOMALY,EPHEMERIS_TYPE,CLASSIFICATION_TYPE,NORAD_CAT_ID,ELEMENT_SET_NO,REV_AT_EPOCH,BSTAR,MEAN_MOTION_DOT,MEAN_MOTION_DDOT
SL-12 R/B(2),1985-042D,2026-04-24T03:48:44.773056,14.21994552,.0033384,71.1097,351.6669,52.8001,118.5128,0,U,15772,999,12085,.72067E-4,.113E-5,0
SL-14 R/B,1985-069B,2026-04-24T02:47:09.422592,14.86475628,.00199,82.5277,342.2277,45.3746,314.9090,0,U,15945,999,17958,.30042E-4,.291E-5,0
SL-16 R/B,1985-097B,2026-04-24T04:29:01.585824,14.16606672,.0008177,71.0043,44.7649,203.9577,258.9815,0,U,16182,999,9367,-.71186E-4,-.19E-5,0
SL-14 R/B,1986-006B,2026-04-24T05:10:54.535872,14.86888680,.0077791,82.5293,216.8915,121.2592,239.6275,0,U,16496,999,15597,.60394E-4,.598E-5,0
COSMOS 1743,1986-034A,2026-04-24T04:03:42.670368,15.62469862,.0007525,82.5327,25.9579,107.3705,252.8377,0,U,16719,999,18734,.43392E-3,.3872E-3,0
SL-14 R/B,1986-046B,2026-04-24T03:16:40.895616,14.85632586,.002467,82.4843,37.2405,78.5405,281.8579,0,U,16792,999,13315,.40516E-4,.377E-5,0
SL-14 R/B,1986-055B,2026-04-23T23:55:36.919776,14.85680751,.0018874,82.5184,84.0729,177.4319,249.7089,0,U,16882,999,12609,.36333E-4,.34E-5,0
AJISAI (EGS),1986-061A,2026-04-24T04:15:17.358336,12.44515926,.0011425,50.0102,313.4763,43.6857,61.8011,0,U,16908,999,47366,.92087E-4,-.84E-6,0
SL-14 R/B,1987-024B,2026-04-23T13:08:24.814752,14.86172937,.00197426,82.5295,50.5975,110.3802,249.9538,0,U,17567,999,9479,.35445758E-4,.337E-5,0
COSMOS 1833,1987-027A,2026-04-23T14:23:27.829824,14.13034628,.00224295,70.9164,231.6160,145.1564,215.1031,0,U,17589,999,1666,-.95775449E-4,-.227E-5,0
SL-16 R/B,1987-027B,2026-04-24T03:34:01.244064,14.17170219,.0003547,71.0028,180.7015,29.9708,330.1618,0,U,17590,999,2178,.13875E-3,.232E-5,0
SL-14 R/B,1987-038B,2026-04-23T15:11:14.326080,14.85408089,.00196784,82.5001,254.4558,20.4684,339.7316,0,U,17912,999,8590,.32494332E-4,.305E-5,0
COSMOS 1844,1987-041A,2026-04-23T22:33:52.898112,14.14561471,.0032771,70.8983,298.7313,311.5718,48.2595,0,U,17973,999,998,-.13302E-3,-.305E-5,0
SL-14 R/B,1987-055B,2026-04-24T00:08:31.222752,14.85667270,.0019608,82.4968,306.3153,220.6131,139.3623,0,U,18153,999,7666,.32192E-4,.304E-5,0
COSMOS 1867,1987-060A,2026-04-23T13:43:16.780800,14.31509495,.00153632,65.0104,181.0115,280.9125,79.0231,0,U,18187,999,2636,.12329681E-4,-.67E-6,0
SL-14 R/B,1988-001B,2026-04-24T04:57:16.708032,14.85569186,.0019662,82.5126,152.5595,88.3097,272.0372,0,U,18749,999,4878,.2848E-4,.272E-5,0
COSMOS 1933,1988-020A,2026-04-24T03:15:33.050016,15.18377253,.000508,82.5151,205.9408,57.6215,302.5509,0,U,18958,999,5712,.15669E-3,.3251E-4,0
SL-3 R/B,1988-032B,2026-04-24T03:38:15.109728,15.20369456,.0027601,97.5239,97.2760,76.5867,283.8442,0,U,19046,999,5901,.18348E-3,.3963E-4,0
SL-16 R/B,1988-039B,2026-04-24T00:08:24.894816,14.19623016,.0024083,71.0153,332.7287,270.3096,89.5270,0,U,19120,999,96481,.75726E-4,.112E-5,0
COSMOS 1953,1988-050A,2026-04-23T23:34:13.141056,15.29186326,.0009654,82.5052,112.6591,333.8035,26.2715,0,U,19210,999,4470,.20474E-3,.5837E-4,0
SL-8 R/B,1988-053B,2026-04-24T05:07:13.413216,14.38941010,.0020672,74.0495,28.5498,200.6942,316.4784,0,U,19257,999,98314,.57121E-4,.15E-5,0
COSMOS 1975,1988-093A,2026-04-23T23:10:05.661984,15.28619955,.001198,82.5186,72.2034,21.4175,338.7563,0,U,19573,999,2632,.16764E-3,.4708E-4,0
SL-14 R/B,1988-093B,2026-04-24T03:12:40.834080,14.85701878,.0019179,82.5334,359.3953,246.1580,227.1750,0,U,19574,999,776,.27167E-4,.26E-5,0
SL-16 R/B,1988-102B,2026-04-24T02:40:02.774208,14.16157478,.0016248,71.0000,55.9214,297.0972,62.8493,0,U,19650,999,93332,-.59956E-4,-.167E-5,0
INTERCOSMOS 24,1989-080A,2026-04-23T22:07:50.074176,12.59600005,.1187482,82.6035,74.9447,187.7760,170.3379,0,U,20261,999,67249,.43649E-4,.165E-5,0
SL-14 R/B,1989-080C,2026-04-24T03:55:33.202272,12.50528044,.1230994,82.5911,144.0042,80.8653,292.9328,0,U,20262,999,66583,.69724E-4,.264E-5,0
DELTA 1 R/B,1989-089B,2026-04-24T03:27:26.938656,14.50695933,.0068472,97.0667,314.3403,340.1620,19.6917,0,U,20323,999,90232,.5346E-4,.18E-5,0
ARIANE 40 R/B,1990-005H,2026-04-24T02:54:35.885088,14.39897843,.0011272,98.3000,173.4084,71.6371,288.6043,0,U,20443,999,89934,.6021E-4,.147E-5,0
DELTA 2 R/B(1),1990-008B,2026-04-23T15:35:23.296416,15.61698380,.00748516,35.6014,238.4515,320.6588,38.8728,0,U,20453,999,93315,.51406011E-3,.53152E-3,0
COSMOS 2058,1990-010A,2026-04-24T03:03:40.654368,15.11688289,.0009553,82.4695,2.6605,166.5981,193.5505,0,U,20465,999,94910,.12006E-3,.2074E-4,0
SL-14 R/B,1990-010B,2026-04-23T06:26:41.614944,14.83609768,.00206135,82.5038,225.5118,149.3779,210.8644,0,U,20466,999,93509,.37939927E-4,.338E-5,0
